{"type": "FeatureCollection", "features": [ {"type": "Feature", "properties": {"norad_id": 42987, "name": "SKYSAT-C11", "group": "resource", "lat": -67.52771513355323, "lon": 157.8192190058601, "alt_km": 430.30258900845274, "timestamp": "2025-12-27T14:26:30.174113+00:00", "meta": {"OBJECT_NAME": "SKYSAT-C11", "OBJECT_ID": "2017-068A", "EPOCH": "2025-12-27T06:58:54.106464", "MEAN_MOTION": 15.48086643, "ECCENTRICITY": 0.00011629, "INCLINATION": 97.4148, "RA_OF_ASC_NODE": 139.1492, "ARG_OF_PERICENTER": 91.979, "MEAN_ANOMALY": 268.1594, "EPHEMERIS_TYPE": 0, "CLASSIFICATION_TYPE": "U", "NORAD_CAT_ID": 42987, "ELEMENT_SET_NO": 999, "REV_AT_EPOCH": 45656, "BSTAR": 0.0004891022, "MEAN_MOTION_DOT": 0.00025591, "MEAN_MOTION_DDOT": 0}, "tle": {"line1": "1 42987U 17068A   25361.29090401  .00025591  00000+0  48910-3 0  9990", "line2": "2 42987  97.4148 139.1492 0001162  91.9790 268.1594 15.48086643456565"}}, "geometry": {"type": "Point", "coordinates": [157.8192190058601, -67.52771513355323]}}, {"type": "Feature", "properties": {"norad_id": 42988, "name": "SKYSAT-C10", "group": "resource", "lat": -73.17353025289509, "lon": -73.05699366381326, "alt_km": 480.46324137039846, "timestamp": "2025-12-27T14:26:30.174124+00:00", "meta": {"OBJECT_NAME": "SKYSAT-C10", "OBJECT_ID": "2017-068B", "EPOCH": "2025-12-27T02:21:25.171200", "MEAN_MOTION": 15.31645862, "ECCENTRICITY": 0.00035297, "INCLINATION": 97.4265, "RA_OF_ASC_NODE": 131.9896, "ARG_OF_PERICENTER": 96.9567, "MEAN_ANOMALY": 263.2076, "EPHEMERIS_TYPE": 0, "CLASSIFICATION_TYPE": "U", "NORAD_CAT_ID": 42988, "ELEMENT_SET_NO": 999, "REV_AT_EPOCH": 45599, "BSTAR": 0.00037534092, "MEAN_MOTION_DOT": 0.00011398, "MEAN_MOTION_DDOT": 0}, "tle": {"line1": "1 42988U 17068B   25361.09820800  .00011398  00000+0  37534-3 0  9993", "line2": "2 42988  97.4265 131.9896 0003529  96.9567 263.2076 15.31645862455993"}}, "geometry": {"type": "Point", "coordinates": [-73.05699366381326, -73.17353025289509]}}, {"type": "Feature", "properties": {"norad_id": 42989, "name": "SKYSAT-C9", "group": "resource", "lat": -36.16028860482924, "lon": 137.44082068142586, "alt_km": 461.39540433182356, "timestamp": "2025-12-27T14:26:30.174135+00:00", "meta": {"OBJECT_NAME": "SKYSAT-C9", "OBJECT_ID": "2017-068C", "EPOCH": "2025-12-27T06:47:05.235072", "MEAN_MOTION": 15.36423263, "ECCENTRICITY": 0.00101737, "INCLINATION": 97.419, "RA_OF_ASC_NODE": 131.6545, "ARG_OF_PERICENTER": 40.8011, "MEAN_ANOMALY": 319.3993, "EPHEMERIS_TYPE": 0, "CLASSIFICATION_TYPE": "U", "NORAD_CAT_ID": 42989, "ELEMENT_SET_NO": 999, "REV_AT_EPOCH": 45631, "BSTAR": 0.00039546422, "MEAN_MOTION_DOT": 0.00014001, "MEAN_MOTION_DDOT": 0}, "tle": {"line1": "1 42989U 17068C   25361.28269948  .00014001  00000+0  39546-3 0  9994", "line2": "2 42989  97.4190 131.6545 0010173  40.8011 319.3993 15.36423263456316"}}, "geometry": {"type": "Point", "coordinates": [137.44082068142586, -36.16028860482924]}}, {"type": "Feature", "properties": {"norad_id": 42990, "name": "SKYSAT-C8", "group": "resource", "lat": 53.210850382906244, "lon": -38.28181580093109, "alt_km": 461.5345242357507, "timestamp": "2025-12-27T14:26:30.174145+00:00", "meta": {"OBJECT_NAME": "SKYSAT-C8", "OBJECT_ID": "2017-068D", "EPOCH": "2025-12-27T07:37:42.314304", "MEAN_MOTION": 15.33249067, "ECCENTRICITY": 9.682e-05, "INCLINATION": 97.4286, "RA_OF_ASC_NODE": 131.3845, "ARG_OF_PERICENTER": 251.4246, "MEAN_ANOMALY": 108.6891, "EPHEMERIS_TYPE": 0, "CLASSIFICATION_TYPE": "U", "NORAD_CAT_ID": 42990, "ELEMENT_SET_NO": 999, "REV_AT_EPOCH": 45594, "BSTAR": 0.00042375128, "MEAN_MOTION_DOT": 0.00013544, "MEAN_MOTION_DDOT": 0}, "tle": {"line1": "1 42990U 17068D   25361.31785086  .00013544  00000+0  42375-3 0  9991", "line2": "2 42990  97.4286 131.3845 0000968 251.4246 108.6891 15.33249067455944"}}, "geometry": {"type": "Point", "coordinates": [-38.28181580093109, 53.210850382906244]}}, {"type": "Feature", "properties": {"norad_id": 42991, "name": "SKYSAT-C7", "group": "resource", "lat": -50.156565455698264, "lon": 141.69563978274093, "alt_km": 472.58478705071957, "timestamp": "2025-12-27T14:26:30.174155+00:00", "meta": {"OBJECT_NAME": "SKYSAT-C7", "OBJECT_ID": "2017-068E", "EPOCH": "2025-12-27T06:49:40.258272", "MEAN_MOTION": 15.32639856, "ECCENTRICITY": 0.00066824, "INCLINATION": 97.4293, "RA_OF_ASC_NODE": 132.3805, "ARG_OF_PERICENTER": 10.4561, "MEAN_ANOMALY": 349.6818, "EPHEMERIS_TYPE": 0, "CLASSIFICATION_TYPE": "U", "NORAD_CAT_ID": 42991, "ELEMENT_SET_NO": 999, "REV_AT_EPOCH": 45600, "BSTAR": 0.00037885959, "MEAN_MOTION_DOT": 0.00011876, "MEAN_MOTION_DDOT": 0}, "tle": {"line1": "1 42991U 17068E   25361.28449373  .00011876  00000+0  37886-3 0  9991", "line2": "2 42991  97.4293 132.3805 0006682  10.4561 349.6818 15.32639856456004"}}, "geometry": {"type": "Point", "coordinates": [141.69563978274093, -50.156565455698264]}}, {"type": "Feature", "properties": {"norad_id": 42992, "name": "SKYSAT-C6", "group": "resource", "lat": 21.04135571449659, "lon": 130.24658818245666, "alt_km": 467.43184269331414, "timestamp": "2025-12-27T14:26:30.174166+00:00", "meta": {"OBJECT_NAME": "SKYSAT-C6", "OBJECT_ID": "2017-068F", "EPOCH": "2025-12-26T21:06:12.822048", "MEAN_MOTION": 15.31783145, "ECCENTRICITY": 0.0004677, "INCLINATION": 97.4325, "RA_OF_ASC_NODE": 132.4006, "ARG_OF_PERICENTER": 43.8732, "MEAN_ANOMALY": 316.288, "EPHEMERIS_TYPE": 0, "CLASSIFICATION_TYPE": "U", "NORAD_CAT_ID": 42992, "ELEMENT_SET_NO": 999, "REV_AT_EPOCH": 45592, "BSTAR": 0.00040064, "MEAN_MOTION_DOT": 0.00012227, "MEAN_MOTION_DDOT": 0}, "tle": {"line1": "1 42992U 17068F   25360.87931507  .00012227  00000+0  40064-3 0  9994", "line2": "2 42992  97.4325 132.4006 0004677  43.8732 316.2880 15.31783145455926"}}, "geometry": {"type": "Point", "coordinates": [130.24658818245666, 21.04135571449659]}}, {"type": "Feature", "properties": {"norad_id": 43111, "name": "CARTOSAT-2F", "group": "resource", "lat": -6.192921982353957, "lon": -121.81403007835392, "alt_km": 511.63670536217705, "timestamp": "2025-12-27T14:26:30.174176+00:00", "meta": {"OBJECT_NAME": "CARTOSAT-2F", "OBJECT_ID": "2018-004A", "EPOCH": "2025-12-27T07:18:08.383680", "MEAN_MOTION": 15.19269909, "ECCENTRICITY": 0.00016301, "INCLINATION": 97.4297, "RA_OF_ASC_NODE": 58.7047, "ARG_OF_PERICENTER": 110.2469, "MEAN_ANOMALY": 249.8941, "EPHEMERIS_TYPE": 0, "CLASSIFICATION_TYPE": "U", "NORAD_CAT_ID": 43111, "ELEMENT_SET_NO": 999, "REV_AT_EPOCH": 44123, "BSTAR": 0.00034673192, "MEAN_MOTION_DOT": 7.246e-05, "MEAN_MOTION_DDOT": 0}, "tle": {"line1": "1 43111U 18004A   25361.30426370  .00007246  00000+0  34673-3 0  9999", "line2": "2 43111  97.4297  58.7047 0001630 110.2469 249.8941 15.19269909441236"}}, "geometry": {"type": "Point", "coordinates": [-121.81403007835392, -6.192921982353957]}}, {"type": "Feature", "properties": {"norad_id": 43259, "name": "GAOFEN-1 02", "group": "resource", "lat": -5.585482972892177, "lon": -121.40115694259424, "alt_km": 642.4642965365692, "timestamp": "2025-12-27T14:26:30.174186+00:00", "meta": {"OBJECT_NAME": "GAOFEN-1 02", "OBJECT_ID": "2018-031A", "EPOCH": "2025-12-27T07:05:53.242368", "MEAN_MOTION": 14.76445395, "ECCENTRICITY": 0.00027647, "INCLINATION": 98.0783, "RA_OF_ASC_NODE": 59.0887, "ARG_OF_PERICENTER": 165.3904, "MEAN_ANOMALY": 194.7386, "EPHEMERIS_TYPE": 0, "CLASSIFICATION_TYPE": "U", "NORAD_CAT_ID": 43259, "ELEMENT_SET_NO": 999, "REV_AT_EPOCH": 41733, "BSTAR": 0.00015117312, "MEAN_MOTION_DOT": 1e-05, "MEAN_MOTION_DDOT": 0}, "tle": {"line1": "1 43259U 18031A   25361.29575512  .00001000  00000+0  15117-3 0  9997", "line2": "2 43259  98.0783  59.0887 0002764 165.3904 194.7386 14.76445395417338"}}, "geometry": {"type": "Point", "coordinates": [-121.40115694259424, -5.585482972892177]}}, {"type": "Feature", "properties": {"norad_id": 43260, "name": "GAOFEN-1 03", "group": "resource", "lat": -57.53529595414273, "lon": 72.16954982634576, "alt_km": 647.0402177346614, "timestamp": "2025-12-27T14:26:30.174196+00:00", "meta": {"OBJECT_NAME": "GAOFEN-1 03", "OBJECT_ID": "2018-031B", "EPOCH": "2025-12-27T06:34:24.229920", "MEAN_MOTION": 14.76428919, "ECCENTRICITY": 0.00016688, "INCLINATION": 98.0778, "RA_OF_ASC_NODE": 58.9428, "ARG_OF_PERICENTER": 247.7257, "MEAN_ANOMALY": 112.3776, "EPHEMERIS_TYPE": 0, "CLASSIFICATION_TYPE": "U", "NORAD_CAT_ID": 43260, "ELEMENT_SET_NO": 999, "REV_AT_EPOCH": 41732, "BSTAR": 0.00015866179, "MEAN_MOTION_DOT": 1.051e-05, "MEAN_MOTION_DDOT": 0}, "tle": {"line1": "1 43260U 18031B   25361.27389155  .00001051  00000+0  15866-3 0  9990", "line2": "2 43260  98.0778  58.9428 0001668 247.7257 112.3776 14.76428919417322"}}, "geometry": {"type": "Point", "coordinates": [72.16954982634576, -57.53529595414273]}}, {"type": "Feature", "properties": {"norad_id": 43262, "name": "GAOFEN-1 04", "group": "resource", "lat": 68.96504960630065, "lon": 37.76682940392069, "alt_km": 633.5680537063618, "timestamp": "2025-12-27T14:26:30.174206+00:00", "meta": {"OBJECT_NAME": "GAOFEN-1 04", "OBJECT_ID": "2018-031D", "EPOCH": "2025-12-27T07:37:02.815680", "MEAN_MOTION": 14.76435239, "ECCENTRICITY": 4.684e-05, "INCLINATION": 98.0783, "RA_OF_ASC_NODE": 59.1566, "ARG_OF_PERICENTER": 71.7929, "MEAN_ANOMALY": 288.3332, "EPHEMERIS_TYPE": 0, "CLASSIFICATION_TYPE": "U", "NORAD_CAT_ID": 43262, "ELEMENT_SET_NO": 999, "REV_AT_EPOCH": 41732, "BSTAR": 0.00013876481, "MEAN_MOTION_DOT": 9.13e-06, "MEAN_MOTION_DDOT": 0}, "tle": {"line1": "1 43262U 18031D   25361.31739370  .00000913  00000+0  13876-3 0  9990", "line2": "2 43262  98.0783  59.1566 0000468  71.7929 288.3332 14.76435239417329"}}, "geometry": {"type": "Point", "coordinates": [37.76682940392069, 68.96504960630065]}}]}